NORAD_CAT_ID,OBJECT_NAME,OBJECT_TYPE,EPOCH,MEAN_MOTION,ECCENTRICITY,INCLINATION,RA_OF_ASC_NODE,ARG_OF_PERICENTER,MEAN_ANOMALY,BSTAR,MEAN_MOTION_DOT,MEAN_MOTION_DDOT,TLE_LINE0,TLE_LINE1,TLE_LINE2,SEMIMAJOR_AXIS,PERIOD,APOGEE,PERIGEE,DECAYED
53137.0,STARLINK-4145,PAYLOAD,2024-07-09 12:30:05,15.08835916,0.0001355,53.2169,24.2944,82.8388,277.2758,7.0414e-05,8.33e-06,0.0,0 STARLINK-4145,1 53137U 22083F   24191.52089454  .00000833  00000-0  70414-4 0  9992,2 53137  53.2169  24.2944 0001355  82.8388 277.2758 15.08835916110032,6917.893,95.438,540.695,538.82,0.0
53137.0,STARLINK-4145,PAYLOAD,2024-07-09 20:27:00,15.08844721,0.0001191,53.2176,22.8081,82.9624,277.1504,5.5003e-05,5.88e-06,0.0,0 STARLINK-4145,1 53137U 22083F   24191.85208873  .00000588  00000-0  55003-4 0  9990,2 53137  53.2176  22.8081 0001191  82.9624 277.1504 15.08844721110085,6917.866,95.437,540.555,538.907,0.0
53137.0,STARLINK-4145,PAYLOAD,2024-07-10 05:59:19,15.08838292,0.0001294,53.2192,21.0218,84.0508,276.0632,2.7587e-05,1.51e-06,0.0,0 STARLINK-4145,1 53137U 22083F   24192.24953426  .00000151  00000-0  27587-4 0  9997,2 53137  53.2192  21.0218 0001294  84.0508 276.0632 15.08838292110147,6917.886,95.438,540.646,538.855,0.0
53137.0,STARLINK-4145,PAYLOAD,2024-07-11 12:11:39,15.08839511,0.0001325,53.2168,15.3757,77.5817,282.5323,0.00010181,1.333e-05,0.0,0 STARLINK-4145,1 53137U 22083F   24193.50809235  .00001333  00000-0  10181-3 0  9999,2 53137  53.2168  15.3757 0001325  77.5817 282.5323 15.08839511109703,6917.882,95.438,540.664,538.83,0.0
53137.0,STARLINK-4145,PAYLOAD,2024-07-11 18:33:11,15.08844249,5.84e-05,53.2167,14.1864,68.2769,291.8286,0.00011744,1.582e-05,0.0,0 STARLINK-4145,1 53137U 22083F   24193.77304743  .00001582  00000-0  11744-3 0  9994,2 53137  53.2167  14.1864 0000584  68.2769 291.8286 15.08844249110377,6917.867,95.437,540.136,539.328,0.0
53137.0,STARLINK-4145,PAYLOAD,2024-07-12 12:02:26,15.08836864,0.0001281,53.219,10.9131,86.7435,273.3703,8.2985e-05,1.033e-05,0.0,0 STARLINK-4145,1 53137U 22083F   24194.50169520  .00001033  00000-0  82985-4 0  9995,2 53137  53.2190  10.9131 0001281  86.7435 273.3703 15.08836864110489,6917.89,95.438,540.641,538.869,0.0
53137.0,STARLINK-4145,PAYLOAD,2024-07-12 18:23:59,15.08838038,0.0001328,53.217,9.725,85.981,274.1334,7.6569e-05,9.31e-06,0.0,0 STARLINK-4145,1 53137U 22083F   24194.76665531  .00000931  00000-0  76569-4 0  9993,2 53137  53.2170   9.7250 0001328  85.9810 274.1334 15.08838038109892,6917.886,95.438,540.67,538.833,0.0
53137.0,STARLINK-4145,PAYLOAD,2024-07-13 18:14:45,15.08845733,0.0001361,53.2182,5.2655,88.8309,271.2839,6.8032e-05,7.95e-06,0.0,0 STARLINK-4145,1 53137U 22083F   24195.76025239  .00000795  00000-0  68032-4 0  9993,2 53137  53.2182   5.2655 0001361  88.8309 271.2839 15.08845733110673,6917.863,95.437,540.669,538.786,0.0
53137.0,STARLINK-4145,PAYLOAD,2024-07-13 21:25:31,15.08851507,0.0001354,53.2179,4.6687,89.998,270.1167,0.00014908,2.086e-05,0.0,0 STARLINK-4145,1 53137U 22083F   24195.89272945  .00002086  00000-0  14908-3 0  9992,2 53137  53.2179   4.6687 0001354  89.9980 270.1167 15.08851507110067,6917.845,95.437,540.647,538.774,0.0
53137.0,STARLINK-4145,PAYLOAD,2024-07-14 11:44:00,15.08834026,0.0001435,53.2179,1.9927,92.6814,267.4343,0.0003056,4.578e-05,0.0,0 STARLINK-4145,1 53137U 22083F   24196.48889965  .00004578  00000-0  30560-3 0  9994,2 53137  53.2179   1.9927 0001435  92.6814 267.4343 15.08834026110782,6917.899,95.438,540.756,538.771,0.0
53137.0,STARLINK-4145,PAYLOAD,2024-07-14 14:54:46,15.08839888,0.000156,53.2167,1.3953,95.667,264.45,0.0001516,2.126e-05,0.0,0 STARLINK-4145,1 53137U 22083F   24196.62137683  .00002126  00000-0  15160-3 0  9999,2 53137  53.2167   1.3953 0001560  95.6670 264.4500 15.08839888110170,6917.881,95.438,540.825,538.667,0.0
53137.0,STARLINK-4145,PAYLOAD,2024-07-14 18:05:32,15.08849168,0.000126,53.2178,0.8053,91.7748,268.3389,0.00030089,4.505e-05,0.0,0 STARLINK-4145,1 53137U 22083F   24196.75385204  .00004505  00000-0  30089-3 0  9997,2 53137  53.2178   0.8053 0001260  91.7748 268.3389 15.08849168110829,6917.852,95.437,540.589,538.846,0.0
53137.0,STARLINK-4145,PAYLOAD,2024-07-15 14:45:33,15.08840927,0.000143,53.2181,356.9343,74.2738,285.8412,-1.0341e-05,-4.53e-06,0.0,0 STARLINK-4145,1 53137U 22083F   24197.61497085 -.00000453  00000-0 -10341-4 0  9994,2 53137  53.2181 356.9343 0001430  74.2738 285.8412 15.08840927110324,6917.878,95.437,540.732,538.753,0.0
53137.0,STARLINK-4145,PAYLOAD,2024-07-15 17:56:19,15.08847881,0.0001198,53.2167,356.3456,93.622,266.4909,4.7812e-05,4.73e-06,0.0,0 STARLINK-4145,1 53137U 22083F   24197.74744725  .00000473  00000-0  47812-4 0  9997,2 53137  53.2167 356.3456 0001198  93.6220 266.4909 15.08847881110972,6917.856,95.437,540.55,538.893,0.0
53137.0,STARLINK-4145,PAYLOAD,2024-07-16 11:25:34,15.08833937,0.0001561,53.2172,353.0737,98.0822,262.0347,-3.939e-06,-3.51e-06,0.0,0 STARLINK-4145,1 53137U 22083F   24198.47609692 -.00000351  00000-0 -39390-5 0  9991,2 53137  53.2172 353.0737 0001561  98.0822 262.0347 15.08833937111083,6917.899,95.438,540.844,538.684,0.0
53137.0,STARLINK-4145,PAYLOAD,2024-07-16 14:36:21,15.08833465,0.0001594,53.2182,352.4809,103.7284,256.3886,-7.8343e-05,-1.534e-05,0.0,0 STARLINK-4145,1 53137U 22083F   24198.60857725 -.00001534  00000-0 -78343-4 0  9992,2 53137  53.2182 352.4809 0001594 103.7284 256.3886 15.08833465110471,6917.9,95.438,540.868,538.663,0.0
53137.0,STARLINK-4145,PAYLOAD,2024-07-16 16:11:44,15.08835696,0.0001561,53.2186,352.1827,103.7926,256.324,-8.0159e-05,-1.563e-05,0.0,0 STARLINK-4145,1 53137U 22083F   24198.67481633 -.00001563  00000-0 -80159-4 0  9990,2 53137  53.2186 352.1827 0001561 103.7926 256.3240 15.08835696110482,6917.894,95.438,540.838,538.679,0.0
53137.0,STARLINK-4145,PAYLOAD,2024-07-17 03:19:25,15.0884156,0.0001271,53.2178,350.0978,81.0795,279.0341,-9.8027e-06,-4.44e-06,0.0,0 STARLINK-4145,1 53137U 22083F   24199.13849238 -.00000444  00000-0 -98027-5 0  9992,2 53137  53.2178 350.0978 0001271  81.0795 279.0341 15.08841560111186,6917.876,95.437,540.62,538.861,0.0
53137.0,STARLINK-4145,PAYLOAD,2024-07-17 14:27:08,15.08828577,0.0001489,53.2185,348.0158,78.6992,281.4167,-7.2397e-06,-4.03e-06,0.0,0 STARLINK-4145,1 53137U 22083F   24199.60218423 -.00000403  00000-0 -72397-5 0  9997,2 53137  53.2185 348.0158 0001489  78.6992 281.4167 15.08828577110627,6917.915,95.438,540.81,538.75,0.0
53137.0,STARLINK-4145,PAYLOAD,2024-07-17 17:37:54,15.0884057,0.00013,53.2176,347.4271,82.9607,277.1533,0.00016903,2.403e-05,0.0,0 STARLINK-4145,1 53137U 22083F   24199.73465871  .00002403  00000-0  16903-3 0  9991,2 53137  53.2176 347.4271 0001300  82.9607 277.1533 15.08840570110647,6917.879,95.438,540.643,538.844,0.0
53137.0,STARLINK-4145,PAYLOAD,2024-07-18 03:10:13,15.08838901,0.0001292,53.2186,345.6424,84.5753,275.5386,0.00011283,1.508e-05,0.0,0 STARLINK-4145,1 53137U 22083F   24200.13210049  .00001508  00000-0  11283-3 0  9994,2 53137  53.2186 345.6424 0001292  84.5753 275.5386 15.08838901111338,6917.884,95.438,540.643,538.855,0.0
53137.0,STARLINK-4145,PAYLOAD,2024-07-18 14:17:55,15.0883638,0.0001233,53.2186,343.5603,86.6706,273.4428,0.00016014,2.261e-05,0.0,0 STARLINK-4145,1 53137U 22083F   24200.59578304  .00002261  00000-0  16014-3 0  9999,2 53137  53.2186 343.5603 0001233  86.6706 273.4428 15.08836380110770,6917.891,95.438,540.609,538.903,0.0
53137.0,STARLINK-4145,PAYLOAD,2024-07-18 15:53:18,15.08838702,0.00012,53.2172,343.2616,89.9792,270.1338,0.00017326,2.471e-05,0.0,0 STARLINK-4145,1 53137U 22083F   24200.66202107  .00002471  00000-0  17326-3 0  9992,2 53137  53.2172 343.2616 0001200  89.9792 270.1338 15.08838702110786,6917.884,95.438,540.58,538.919,0.0
53137.0,STARLINK-4145,PAYLOAD,2024-07-19 12:33:19,15.08834803,0.0001139,53.216,339.3953,80.3452,279.7669,0.00014463,2.014e-05,0.0,0 STARLINK-4145,1 53137U 22083F   24201.52314431  .00002014  00000-0  14463-3 0  9994,2 53137  53.2160 339.3953 0001139  80.3452 279.7669 15.08834803111547,6917.896,95.438,540.549,538.973,0.0
53137.0,STARLINK-4145,PAYLOAD,2024-07-19 14:08:42,15.08836608,0.0001296,53.2184,339.0984,87.8659,272.2482,0.00014927,2.088e-05,0.0,0 STARLINK-4145,1 53137U 22083F   24201.58938287  .00002088  00000-0  14927-3 0  9997,2 53137  53.2184 339.0984 0001296  87.8659 272.2482 15.08836608110926,6917.891,95.438,540.652,538.859,0.0
53137.0,STARLINK-4145,PAYLOAD,2024-07-19 15:44:05,15.08840158,0.0001371,53.2187,338.7967,99.3772,260.7375,0.00015503,2.18e-05,0.0,0 STARLINK-4145,1 53137U 22083F   24201.65561983  .00002180  00000-0  15503-3 0  9994,2 53137  53.2187 338.7967 0001371  99.3772 260.7375 15.08840158110933,6917.88,95.438,540.693,538.796,0.0
53137.0,STARLINK-4145,PAYLOAD,2024-07-20 13:59:29,15.0884337,0.0001165,53.2171,334.6373,91.4831,268.6295,8.1069e-05,1.003e-05,0.0,0 STARLINK-4145,1 53137U 22083F   24202.58298083  .00001003  00000-0  81069-4 0  9999,2 53137  53.2171 334.6373 0001165  91.4831 268.6295 15.08843370111075,6917.87,95.437,540.541,538.929,0.0
53137.0,STARLINK-4145,PAYLOAD,2024-07-20 15:34:52,15.08847668,0.0001469,53.2191,334.3407,101.804,258.3117,7.6855e-05,9.36e-06,0.0,0 STARLINK-4145,1 53137U 22083F   24202.64921822  .00000936  00000-0  76855-4 0  9991,2 53137  53.2191 334.3407 0001469 101.8040 258.3117 15.08847668111711,6917.857,95.437,540.738,538.706,0.0
53137.0,STARLINK-4145,PAYLOAD,2024-07-21 12:14:53,15.08842348,0.0001461,53.2187,330.4741,103.6018,256.5137,6.0271e-05,6.71e-06,0.0,0 STARLINK-4145,1 53137U 22083F   24203.51034187  .00000671  00000-0  60271-4 0  9998,2 53137  53.2187 330.4741 0001461 103.6018 256.5137 15.08842348111847,6917.873,95.437,540.749,538.728,0.0
53137.0,STARLINK-4145,PAYLOAD,2024-07-21 13:50:16,15.08844069,0.0001261,53.2189,330.178,97.2263,262.8873,4.257e-05,3.9e-06,0.0,0 STARLINK-4145,1 53137U 22083F   24203.57658168  .00000390  00000-0  42570-4 0  9995,2 53137  53.2189 330.1780 0001261  97.2263 262.8873 15.08844069111228,6917.868,95.437,540.605,538.861,0.0
